{"type": "FeatureCollection", "features": [ {"type": "Feature", "properties": {"norad_id": 66909, "name": "SILVERSAT", "group": "last-30-days", "lat": 19.233194725593968, "lon": 90.91268474795905, "alt_km": 403.9732722319668, "timestamp": "2025-12-26T07:29:17.194618+00:00", "meta": {"OBJECT_NAME": "SILVERSAT", "OBJECT_ID": "1998-067XV", "EPOCH": "2025-12-24T12:08:54.950784", "MEAN_MOTION": 15.53202951, "ECCENTRICITY": 0.00038249, "INCLINATION": 51.631, "RA_OF_ASC_NODE": 83.8633, "ARG_OF_PERICENTER": 300.8028, "MEAN_ANOMALY": 59.2585, "EPHEMERIS_TYPE": 0, "CLASSIFICATION_TYPE": "U", "NORAD_CAT_ID": 66909, "ELEMENT_SET_NO": 999, "REV_AT_EPOCH": 344, "BSTAR": 0.0011617624, "MEAN_MOTION_DOT": 0.00074602, "MEAN_MOTION_DDOT": 0}, "tle": {"line1": "1 66909U 98067XV  25358.50619156  .00074602  00000+0  11618-2 0  9993", "line2": "2 66909  51.6310  83.8633 0003824 300.8028  59.2585 15.53202951  3445"}}, "geometry": {"type": "Point", "coordinates": [90.91268474795905, 19.233194725593968]}}, {"type": "Feature", "properties": {"norad_id": 66910, "name": "1998-067XW", "group": "last-30-days", "lat": 25.8191829299435, "lon": 97.38971590947901, "alt_km": 404.70400981246075, "timestamp": "2025-12-26T07:29:17.194630+00:00", "meta": {"OBJECT_NAME": "1998-067XW", "OBJECT_ID": "1998-067XW", "EPOCH": "2025-12-25T05:05:39.017760", "MEAN_MOTION": 15.53228928, "ECCENTRICITY": 0.0003837, "INCLINATION": 51.6308, "RA_OF_ASC_NODE": 80.3284, "ARG_OF_PERICENTER": 278.3824, "MEAN_ANOMALY": 81.6731, "EPHEMERIS_TYPE": 0, "CLASSIFICATION_TYPE": "U", "NORAD_CAT_ID": 66910, "ELEMENT_SET_NO": 999, "REV_AT_EPOCH": 355, "BSTAR": 0.0010169, "MEAN_MOTION_DOT": 0.00065225, "MEAN_MOTION_DDOT": 0}, "tle": {"line1": "1 66910U 98067XW  25359.21225715  .00065225  00000+0  10169-2 0  9999", "line2": "2 66910  51.6308  80.3284 0003837 278.3824  81.6731 15.53228928  3551"}}, "geometry": {"type": "Point", "coordinates": [97.38971590947901, 25.8191829299435]}}, {"type": "Feature", "properties": {"norad_id": 66911, "name": "1998-067XX", "group": "last-30-days", "lat": 41.37682121995415, "lon": 119.0623860590692, "alt_km": 401.13698441913766, "timestamp": "2025-12-26T07:29:17.194652+00:00", "meta": {"OBJECT_NAME": "1998-067XX", "OBJECT_ID": "1998-067XX", "EPOCH": "2025-12-25T14:15:47.536416", "MEAN_MOTION": 15.53814599, "ECCENTRICITY": 0.000352, "INCLINATION": 51.6302, "RA_OF_ASC_NODE": 78.3793, "ARG_OF_PERICENTER": 286.8967, "MEAN_ANOMALY": 73.1637, "EPHEMERIS_TYPE": 0, "CLASSIFICATION_TYPE": "U", "NORAD_CAT_ID": 66911, "ELEMENT_SET_NO": 999, "REV_AT_EPOCH": 360, "BSTAR": 0.0011507, "MEAN_MOTION_DOT": 0.00075561, "MEAN_MOTION_DDOT": 0}, "tle": {"line1": "1 66911U 98067XX  25359.59430019  .00075561  00000+0  11507-2 0  9997", "line2": "2 66911  51.6302  78.3793 0003520 286.8967  73.1637 15.53814599  3601"}}, "geometry": {"type": "Point", "coordinates": [119.0623860590692, 41.37682121995415]}}, {"type": "Feature", "properties": {"norad_id": 66912, "name": "1998-067XY", "group": "last-30-days", "lat": -16.257896957282465, "lon": 61.60593869203148, "alt_km": 410.15593013100624, "timestamp": "2025-12-26T07:29:17.194664+00:00", "meta": {"OBJECT_NAME": "1998-067XY", "OBJECT_ID": "1998-067XY", "EPOCH": "2025-12-25T14:35:00.692160", "MEAN_MOTION": 15.52392127, "ECCENTRICITY": 0.0003813, "INCLINATION": 51.6317, "RA_OF_ASC_NODE": 78.4687, "ARG_OF_PERICENTER": 296.0372, "MEAN_ANOMALY": 64.0225, "EPHEMERIS_TYPE": 0, "CLASSIFICATION_TYPE": "U", "NORAD_CAT_ID": 66912, "ELEMENT_SET_NO": 999, "REV_AT_EPOCH": 360, "BSTAR": 0.0008056, "MEAN_MOTION_DOT": 0.00049931, "MEAN_MOTION_DDOT": 0}, "tle": {"line1": "1 66912U 98067XY  25359.60764690  .00049931  00000+0  80560-3 0  9993", "line2": "2 66912  51.6317  78.4687 0003813 296.0372  64.0225 15.52392127  3608"}}, "geometry": {"type": "Point", "coordinates": [61.60593869203148, -16.257896957282465]}}, {"type": "Feature", "properties": {"norad_id": 66913, "name": "2025-284A", "group": "last-30-days", "lat": 61.55283132964732, "lon": -85.46390315042507, "alt_km": 539.6653532764649, "timestamp": "2025-12-26T07:29:17.194675+00:00", "meta": {"OBJECT_NAME": "2025-284A", "OBJECT_ID": "2025-284A", "EPOCH": "2025-12-23T02:34:46.438752", "MEAN_MOTION": 15.08893564, "ECCENTRICITY": 0.0013475, "INCLINATION": 80.4035, "RA_OF_ASC_NODE": 116.7336, "ARG_OF_PERICENTER": 259.6514, "MEAN_ANOMALY": 100.3189, "EPHEMERIS_TYPE": 0, "CLASSIFICATION_TYPE": "U", "NORAD_CAT_ID": 66913, "ELEMENT_SET_NO": 999, "REV_AT_EPOCH": 269, "BSTAR": 0.00055263602, "MEAN_MOTION_DOT": 8.748e-05, "MEAN_MOTION_DDOT": 0}, "tle": {"line1": "1 66913U 25284A   25357.10748193  .00008748  00000+0  55264-3 0  9992", "line2": "2 66913  80.4035 116.7336 0013475 259.6514 100.3189 15.08893564  2694"}}, "geometry": {"type": "Point", "coordinates": [-85.46390315042507, 61.55283132964732]}}, {"type": "Feature", "properties": {"norad_id": 66914, "name": "2025-284B", "group": "last-30-days", "lat": 74.79264245430375, "lon": 151.04897812965018, "alt_km": 504.39501049250157, "timestamp": "2025-12-26T07:29:17.194688+00:00", "meta": {"OBJECT_NAME": "2025-284B", "OBJECT_ID": "2025-284B", "EPOCH": "2025-12-16T06:51:11.417184", "MEAN_MOTION": 15.18985981, "ECCENTRICITY": 0.00081793, "INCLINATION": 80.4045, "RA_OF_ASC_NODE": 125.2713, "ARG_OF_PERICENTER": 234.9626, "MEAN_ANOMALY": 125.0834, "EPHEMERIS_TYPE": 0, "CLASSIFICATION_TYPE": "U", "NORAD_CAT_ID": 66914, "ELEMENT_SET_NO": 999, "REV_AT_EPOCH": 166, "BSTAR": 0.00038444995, "MEAN_MOTION_DOT": 8.068e-05, "MEAN_MOTION_DDOT": 0}, "tle": {"line1": "1 66914U 25284B   25350.28554881  .00008068  00000+0  38445-3 0  9991", "line2": "2 66914  80.4045 125.2713 0008179 234.9626 125.0834 15.18985981  1668"}}, "geometry": {"type": "Point", "coordinates": [151.04897812965018, 74.79264245430375]}}, {"type": "Feature", "properties": {"norad_id": 66915, "name": "HULIANWANG DIGUI-105", "group": "last-30-days", "lat": 41.156822502296144, "lon": 109.20873841927272, "alt_km": 875.3556292093162, "timestamp": "2025-12-26T07:29:17.194698+00:00", "meta": {"OBJECT_NAME": "HULIANWANG DIGUI-105", "OBJECT_ID": "2025-285A", "EPOCH": "2025-12-25T22:39:51.784704", "MEAN_MOTION": 14.03720128, "ECCENTRICITY": 0.00081357, "INCLINATION": 50.0056, "RA_OF_ASC_NODE": 63.5026, "ARG_OF_PERICENTER": 326.8007, "MEAN_ANOMALY": 33.2386, "EPHEMERIS_TYPE": 0, "CLASSIFICATION_TYPE": "U", "NORAD_CAT_ID": 66915, "ELEMENT_SET_NO": 999, "REV_AT_EPOCH": 276, "BSTAR": 0.00011779758, "MEAN_MOTION_DOT": 3.5e-07, "MEAN_MOTION_DDOT": 0}, "tle": {"line1": "1 66915U 25285A   25359.94434936  .00000035  00000+0  11780-3 0  9992", "line2": "2 66915  50.0056  63.5026 0008135 326.8007  33.2386 14.03720128  2768"}}, "geometry": {"type": "Point", "coordinates": [109.20873841927272, 41.156822502296144]}}, {"type": "Feature", "properties": {"norad_id": 66916, "name": "HULIANWANG DIGUI-106", "group": "last-30-days", "lat": 47.28485830732956, "lon": 127.3755219243175, "alt_km": 876.2908751700979, "timestamp": "2025-12-26T07:29:17.194710+00:00", "meta": {"OBJECT_NAME": "HULIANWANG DIGUI-106", "OBJECT_ID": "2025-285B", "EPOCH": "2025-12-25T22:35:46.091616", "MEAN_MOTION": 14.03704999, "ECCENTRICITY": 0.00069196, "INCLINATION": 50.0066, "RA_OF_ASC_NODE": 63.4898, "ARG_OF_PERICENTER": 320.0791, "MEAN_ANOMALY": 39.9604, "EPHEMERIS_TYPE": 0, "CLASSIFICATION_TYPE": "U", "NORAD_CAT_ID": 66916, "ELEMENT_SET_NO": 999, "REV_AT_EPOCH": 276, "BSTAR": 0.00011896993, "MEAN_MOTION_DOT": 3.7e-07, "MEAN_MOTION_DDOT": 0}, "tle": {"line1": "1 66916U 25285B   25359.94150569  .00000037  00000+0  11897-3 0  9991", "line2": "2 66916  50.0066  63.4898 0006919 320.0791  39.9604 14.03704999  2764"}}, "geometry": {"type": "Point", "coordinates": [127.3755219243175, 47.28485830732956]}}, {"type": "Feature", "properties": {"norad_id": 66917, "name": "HULIANWANG DIGUI-107", "group": "last-30-days", "lat": 49.35103136943924, "lon": 139.86319280643377, "alt_km": 876.2441174310025, "timestamp": "2025-12-26T07:29:17.194720+00:00", "meta": {"OBJECT_NAME": "HULIANWANG DIGUI-107", "OBJECT_ID": "2025-285C", "EPOCH": "2025-12-25T22:33:19.336896", "MEAN_MOTION": 14.03664953, "ECCENTRICITY": 0.00075633, "INCLINATION": 50.0031, "RA_OF_ASC_NODE": 63.4725, "ARG_OF_PERICENTER": 329.4487, "MEAN_ANOMALY": 30.5976, "EPHEMERIS_TYPE": 0, "CLASSIFICATION_TYPE": "U", "NORAD_CAT_ID": 66917, "ELEMENT_SET_NO": 999, "REV_AT_EPOCH": 276, "BSTAR": 0.00010773485, "MEAN_MOTION_DOT": 1.9e-07, "MEAN_MOTION_DDOT": 0}, "tle": {"line1": "1 66917U 25285C   25359.93980714  .00000019  00000+0  10773-3 0  9996", "line2": "2 66917  50.0031  63.4725 0007563 329.4487  30.5976 14.03664953  2761"}}, "geometry": {"type": "Point", "coordinates": [139.86319280643377, 49.35103136943924]}}, {"type": "Feature", "properties": {"norad_id": 66918, "name": "HULIANWANG DIGUI-108", "group": "last-30-days", "lat": 49.71389318677125, "lon": 143.99158519663817, "alt_km": 876.7948333401991, "timestamp": "2025-12-26T07:29:17.194732+00:00", "meta": {"OBJECT_NAME": "HULIANWANG DIGUI-108", "OBJECT_ID": "2025-285D", "EPOCH": "2025-12-25T22:32:31.550784", "MEAN_MOTION": 14.03604034, "ECCENTRICITY": 0.000669, "INCLINATION": 50.0053, "RA_OF_ASC_NODE": 63.4745, "ARG_OF_PERICENTER": 324.0229, "MEAN_ANOMALY": 36.0224, "EPHEMERIS_TYPE": 0, "CLASSIFICATION_TYPE": "U", "NORAD_CAT_ID": 66918, "ELEMENT_SET_NO": 999, "REV_AT_EPOCH": 276, "BSTAR": 0.0001207866, "MEAN_MOTION_DOT": 3.9e-07, "MEAN_MOTION_DDOT": 0}, "tle": {"line1": "1 66918U 25285D   25359.93925406  .00000039  00000+0  12079-3 0  9997", "line2": "2 66918  50.0053  63.4745 0006690 324.0229  36.0224 14.03604034  2764"}}, "geometry": {"type": "Point", "coordinates": [143.99158519663817, 49.71389318677125]}}]}